CCSDS_OMM_VERS = 2.0
CREATION_DATE  = 
ORIGINATOR     = 

OBJECT_NAME    = COSMOS 1933
OBJECT_ID      = 1988-020A
CENTER_NAME    = EARTH
REF_FRAME      = TEME
TIME_SYSTEM    = UTC
MEAN_ELEMENT_THEORY = SGP/SGP4

EPOCH          = 2026-01-14T20:37:49.648224
MEAN_MOTION    = 15.17450564
ECCENTRICITY   = .0005613
INCLINATION    = 82.5153
RA_OF_ASC_NODE = 304.1500
ARG_OF_PERICENTER = 44.3484
MEAN_ANOMALY   = 315.8198

EPHEMERIS_TYPE = 0
CLASSIFICATION_TYPE = U
NORAD_CAT_ID   = 18958
ELEMENT_SET_NO = 999
REV_AT_EPOCH   = 4206
BSTAR          = .12426E-3
MEAN_MOTION_DOT = .2517E-4
MEAN_MOTION_DDOT = 0

CCSDS_OMM_VERS = 2.0
CREATION_DATE  = 
ORIGINATOR     = 

OBJECT_NAME    = SL-3 R/B
OBJECT_ID      = 1988-032B
CENTER_NAME    = EARTH
REF_FRAME      = TEME
TIME_SYSTEM    = UTC
MEAN_ELEMENT_THEORY = SGP/SGP4

EPOCH          = 2026-01-15T03:06:45.082080
MEAN_MOTION    = 15.19138610
ECCENTRICITY   = .002822
INCLINATION    = 97.5109
RA_OF_ASC_NODE = 358.6342
ARG_OF_PERICENTER = 62.6192
MEAN_ANOMALY   = 297.7909

EPHEMERIS_TYPE = 0
CLASSIFICATION_TYPE = U
NORAD_CAT_ID   = 19046
ELEMENT_SET_NO = 999
REV_AT_EPOCH   = 4397
BSTAR          = .14708E-3
MEAN_MOTION_DOT = .3051E-4
MEAN_MOTION_DDOT = 0

CCSDS_OMM_VERS = 2.0
CREATION_DATE  = 
ORIGINATOR     = 

OBJECT_NAME    = SL-16 R/B
OBJECT_ID      = 1988-039B
CENTER_NAME    = EARTH
REF_FRAME      = TEME
TIME_SYSTEM    = UTC
MEAN_ELEMENT_THEORY = SGP/SGP4

EPOCH          = 2026-01-14T19:03:52.995168
MEAN_MOTION    = 14.19605214
ECCENTRICITY   = .0019804
INCLINATION    = 71.0134
RA_OF_ASC_NODE = 182.5075
ARG_OF_PERICENTER = 59.6170
MEAN_ANOMALY   = 300.6909

EPHEMERIS_TYPE = 0
CLASSIFICATION_TYPE = U
NORAD_CAT_ID   = 19120
ELEMENT_SET_NO = 999
REV_AT_EPOCH   = 95073
BSTAR          = .87221E-4
MEAN_MOTION_DOT = .137E-5
MEAN_MOTION_DDOT = 0

CCSDS_OMM_VERS = 2.0
CREATION_DATE  = 
ORIGINATOR     = 

OBJECT_NAME    = COSMOS 1953
OBJECT_ID      = 1988-050A
CENTER_NAME    = EARTH
REF_FRAME      = TEME
TIME_SYSTEM    = UTC
MEAN_ELEMENT_THEORY = SGP/SGP4

EPOCH          = 2026-01-15T01:20:14.049024
MEAN_MOTION    = 15.27377676
ECCENTRICITY   = .0010828
INCLINATION    = 82.5067
RA_OF_ASC_NODE = 212.1395
ARG_OF_PERICENTER = 318.7789
MEAN_ANOMALY   = 41.2631

EPHEMERIS_TYPE = 0
CLASSIFICATION_TYPE = U
NORAD_CAT_ID   = 19210
ELEMENT_SET_NO = 999
REV_AT_EPOCH   = 2959
BSTAR          = .12691E-3
MEAN_MOTION_DOT = .3439E-4
MEAN_MOTION_DDOT = 0

CCSDS_OMM_VERS = 2.0
CREATION_DATE  = 
ORIGINATOR     = 

OBJECT_NAME    = SL-8 R/B
OBJECT_ID      = 1988-053B
CENTER_NAME    = EARTH
REF_FRAME      = TEME
TIME_SYSTEM    = UTC
MEAN_ELEMENT_THEORY = SGP/SGP4

EPOCH          = 2026-01-14T23:49:14.424384
MEAN_MOTION    = 14.38880068
ECCENTRICITY   = .0019375
INCLINATION    = 74.0453
RA_OF_ASC_NODE = 211.4335
ARG_OF_PERICENTER = 43.3323
MEAN_ANOMALY   = 68.7363

EPHEMERIS_TYPE = 0
CLASSIFICATION_TYPE = U
NORAD_CAT_ID   = 19257
ELEMENT_SET_NO = 999
REV_AT_EPOCH   = 96887
BSTAR          = .3878E-4
MEAN_MOTION_DOT = .93E-6
MEAN_MOTION_DDOT = 0

CCSDS_OMM_VERS = 2.0
CREATION_DATE  = 
ORIGINATOR     = 

OBJECT_NAME    = COSMOS 1975
OBJECT_ID      = 1988-093A
CENTER_NAME    = EARTH
REF_FRAME      = TEME
TIME_SYSTEM    = UTC
MEAN_ELEMENT_THEORY = SGP/SGP4

EPOCH          = 2026-01-14T21:06:00.198144
MEAN_MOTION    = 15.27008659
ECCENTRICITY   = .0011699
INCLINATION    = 82.5197
RA_OF_ASC_NODE = 171.6392
ARG_OF_PERICENTER = 5.8439
MEAN_ANOMALY   = 354.2934

EPHEMERIS_TYPE = 0
CLASSIFICATION_TYPE = U
NORAD_CAT_ID   = 19573
ELEMENT_SET_NO = 999
REV_AT_EPOCH   = 1119
BSTAR          = .14645E-3
MEAN_MOTION_DOT = .3921E-4
MEAN_MOTION_DDOT = 0

CCSDS_OMM_VERS = 2.0
CREATION_DATE  = 
ORIGINATOR     = 

OBJECT_NAME    = SL-14 R/B
OBJECT_ID      = 1988-093B
CENTER_NAME    = EARTH
REF_FRAME      = TEME
TIME_SYSTEM    = UTC
MEAN_ELEMENT_THEORY = SGP/SGP4

EPOCH          = 2026-01-15T04:15:50.109984
MEAN_MOTION    = 14.85591444
ECCENTRICITY   = .0019924
INCLINATION    = 82.5310
RA_OF_ASC_NODE = 92.2885
ARG_OF_PERICENTER = 211.5992
MEAN_ANOMALY   = 177.6128

EPHEMERIS_TYPE = 0
CLASSIFICATION_TYPE = U
NORAD_CAT_ID   = 19574
ELEMENT_SET_NO = 999
REV_AT_EPOCH   = 99309
BSTAR          = .32371E-4
MEAN_MOTION_DOT = .305E-5
MEAN_MOTION_DDOT = 0

CCSDS_OMM_VERS = 2.0
CREATION_DATE  = 
ORIGINATOR     = 

OBJECT_NAME    = SL-16 R/B
OBJECT_ID      = 1988-102B
CENTER_NAME    = EARTH
REF_FRAME      = TEME
TIME_SYSTEM    = UTC
MEAN_ELEMENT_THEORY = SGP/SGP4

EPOCH          = 2026-01-15T03:38:19.244832
MEAN_MOTION    = 14.16143863
ECCENTRICITY   = .0011999
INCLINATION    = 70.9989
RA_OF_ASC_NODE = 264.1437
ARG_OF_PERICENTER = 93.0862
MEAN_ANOMALY   = 267.1634

EPHEMERIS_TYPE = 0
CLASSIFICATION_TYPE = U
NORAD_CAT_ID   = 19650
ELEMENT_SET_NO = 999
REV_AT_EPOCH   = 91931
BSTAR          = .16777E-3
MEAN_MOTION_DOT = .284E-5
MEAN_MOTION_DDOT = 0

CCSDS_OMM_VERS = 2.0
CREATION_DATE  = 
ORIGINATOR     = 

OBJECT_NAME    = INTERCOSMOS 24
OBJECT_ID      = 1989-080A
CENTER_NAME    = EARTH
REF_FRAME      = TEME
TIME_SYSTEM    = UTC
MEAN_ELEMENT_THEORY = SGP/SGP4

EPOCH          = 2026-01-14T18:59:18.574944
MEAN_MOTION    = 12.59486623
ECCENTRICITY   = .1188983
INCLINATION    = 82.6078
RA_OF_ASC_NODE = 139.4684
ARG_OF_PERICENTER = 57.8896
MEAN_ANOMALY   = 313.2068

EPHEMERIS_TYPE = 0
CLASSIFICATION_TYPE = U
NORAD_CAT_ID   = 20261
ELEMENT_SET_NO = 999
REV_AT_EPOCH   = 66001
BSTAR          = .74435E-4
MEAN_MOTION_DOT = .282E-5
MEAN_MOTION_DDOT = 0

CCSDS_OMM_VERS = 2.0
CREATION_DATE  = 
ORIGINATOR     = 

OBJECT_NAME    = SL-14 R/B
OBJECT_ID      = 1989-080C
CENTER_NAME    = EARTH
REF_FRAME      = TEME
TIME_SYSTEM    = UTC
MEAN_ELEMENT_THEORY = SGP/SGP4

EPOCH          = 2026-01-14T22:42:45.216288
MEAN_MOTION    = 12.50438407
ECCENTRICITY   = .1229762
INCLINATION    = 82.5913
RA_OF_ASC_NODE = 207.6967
ARG_OF_PERICENTER = 307.6849
MEAN_ANOMALY   = 41.8754

EPHEMERIS_TYPE = 0
CLASSIFICATION_TYPE = U
NORAD_CAT_ID   = 20262
ELEMENT_SET_NO = 999
REV_AT_EPOCH   = 65343
BSTAR          = .54692E-4
MEAN_MOTION_DOT = .183E-5
MEAN_MOTION_DDOT = 0

CCSDS_OMM_VERS = 2.0
CREATION_DATE  = 
ORIGINATOR     = 

OBJECT_NAME    = DELTA 1 R/B
OBJECT_ID      = 1989-089B
CENTER_NAME    = EARTH
REF_FRAME      = TEME
TIME_SYSTEM    = UTC
MEAN_ELEMENT_THEORY = SGP/SGP4

EPOCH          = 2026-01-15T02:16:02.004960
MEAN_MOTION    = 14.50605708
ECCENTRICITY   = .0067682
INCLINATION    = 97.0736
RA_OF_ASC_NODE = 231.0438
ARG_OF_PERICENTER = 292.6177
MEAN_ANOMALY   = 66.7871

EPHEMERIS_TYPE = 0
CLASSIFICATION_TYPE = U
NORAD_CAT_ID   = 20323
ELEMENT_SET_NO = 999
REV_AT_EPOCH   = 88796
BSTAR          = .72398E-4
MEAN_MOTION_DOT = .256E-5
MEAN_MOTION_DDOT = 0

CCSDS_OMM_VERS = 2.0
CREATION_DATE  = 
ORIGINATOR     = 

OBJECT_NAME    = ARIANE 40 R/B
OBJECT_ID      = 1990-005H
CENTER_NAME    = EARTH
REF_FRAME      = TEME
TIME_SYSTEM    = UTC
MEAN_ELEMENT_THEORY = SGP/SGP4

EPOCH          = 2026-01-15T03:58:39.174816
MEAN_MOTION    = 14.39825998
ECCENTRICITY   = .0010179
INCLINATION    = 98.3193
RA_OF_ASC_NODE = 77.3916
ARG_OF_PERICENTER = 12.8081
MEAN_ANOMALY   = 347.3365

EPHEMERIS_TYPE = 0
CLASSIFICATION_TYPE = U
NORAD_CAT_ID   = 20443
ELEMENT_SET_NO = 999
REV_AT_EPOCH   = 88510
BSTAR          = .6577E-4
MEAN_MOTION_DOT = .164E-5
MEAN_MOTION_DDOT = 0

