COSMOS 1933             
1 18958U 88020A   26014.85960241  .00002517  00000+0  12426-3 0  9999
2 18958  82.5153 304.1500 0005613  44.3484 315.8198 15.17450564 42067
SL-3 R/B                
1 19046U 88032B   26015.12968845  .00003051  00000+0  14708-3 0  9999
2 19046  97.5109 358.6342 0028220  62.6192 297.7909 15.19138610 43975
SL-16 R/B               
1 19120U 88039B   26014.79436337  .00000137  00000+0  87221-4 0  9990
2 19120  71.0134 182.5075 0019804  59.6170 300.6909 14.19605214950733
COSMOS 1953             
1 19210U 88050A   26015.05571816  .00003439  00000+0  12691-3 0  9991
2 19210  82.5067 212.1395 0010828 318.7789  41.2631 15.27377676 29591
SL-8 R/B                
1 19257U 88053B   26014.99252806  .00000093  00000+0  38780-4 0  9993
2 19257  74.0453 211.4335 0019375  43.3323  68.7363 14.38880068968878
COSMOS 1975             
1 19573U 88093A   26014.87916896  .00003921  00000+0  14645-3 0  9997
2 19573  82.5197 171.6392 0011699   5.8439 354.2934 15.27008659 11198
SL-14 R/B               
1 19574U 88093B   26015.17766331  .00000305  00000+0  32371-4 0  9999
2 19574  82.5310  92.2885 0019924 211.5992 177.6128 14.85591444993092
SL-16 R/B               
1 19650U 88102B   26015.15161163  .00000284  00000+0  16777-3 0  9992
2 19650  70.9989 264.1437 0011999  93.0862 267.1634 14.16143863919318
INTERCOSMOS 24          
1 20261U 89080A   26014.79118721  .00000282  00000+0  74435-4 0  9993
2 20261  82.6078 139.4684 1188983  57.8896 313.2068 12.59486623660012
SL-14 R/B               
1 20262U 89080C   26014.94635667  .00000183  00000+0  54692-4 0  9997
2 20262  82.5913 207.6967 1229762 307.6849  41.8754 12.50438407653439
DELTA 1 R/B             
1 20323U 89089B   26015.09446765  .00000256  00000+0  72398-4 0  9994
2 20323  97.0736 231.0438 0067682 292.6177  66.7871 14.50605708887967
ARIANE 40 R/B           
1 20443U 90005H   26015.16573119  .00000164  00000+0  65770-4 0  9993
2 20443  98.3193  77.3916 0010179  12.8081 347.3365 14.39825998885100
